ONEWEB-0158             
1 48054U 21025N   25040.56505104  .00000324  00000+0  85277-3 0  9998
2 48054  87.8876  58.1462 0001708  89.3401 270.7924 13.13471801188966
ONEWEB-0157             
1 48055U 21025P   25040.58885021  .00000095  00000+0  22536-3 0  9994
2 48055  87.8876  58.1535 0002174  81.6457 278.4918 13.13467732188902
ONEWEB-0162             
1 48056U 21025Q   25040.55235733  .00000070  00000+0  15575-3 0  9999
2 48056  87.8875  58.1532 0001818  89.8391 270.2947 13.13471668188859
ONEWEB-0155             
1 48057U 21025R   25040.57299205  .00000383  00000+0  10136-2 0  9990
2 48057  87.8877  58.1634 0002035  91.7055 268.4307 13.13470532189013
ONEWEB-0149             
1 48058U 21025S   25040.59361664 -.00000015  00000+0 -76715-4 0  9993
2 48058  87.8876  58.1542 0001628  86.0049 274.1266 13.13470301188828
ONEWEB-0148             
1 48059U 21025T   25040.55869346  .00000236  00000+0  61008-3 0  9991
2 48059  87.8879  58.1802 0001641  68.8763 291.2542 13.13471860188948
ONEWEB-0160             
1 48060U 21025U   25040.57457214  .00000336  00000+0  88512-3 0  9992
2 48060  87.8880  58.1734 0001663 120.3184 239.8109 13.13474692188898
ONEWEB-0163             
1 48061U 21025V   25040.56029234  .00000277  00000+0  72295-3 0  9994
2 48061  87.8876  58.1618 0002038  84.1439 275.9923 13.13471652189026
